id,company,address,city,state,zipcode,phone,email,contact
1,Sibelius,"P.O. Box 324, 5048 Ac Road",Flint,Michigan,38991,1-342-571-5510,in.consectetuer@ipsumnuncid.org,"Callum Coffey"
2,Google,"9699 Enim. Rd.","Saint Paul",Minnesota,89939,1-564-906-6972,at.pede.Cras@Aliquam.edu,"Fiona Graham"
3,Yahoo,"Ap #841-8689 Commodo St.",Fairbanks,Alaska,99693,1-951-969-4030,pharetra.nibh@mauris.edu,"Hyatt Bruce"
4,Finale,"Ap #404-8936 Nulla. Rd.","San Antonio",Texas,74505,1-842-702-7059,lobortis.Class.aptent@Etiamvestibulummassa.co,"Casey Lewis"
5,Cakewalk,"4152 Nisl Rd.","West Valley City",Utah,78462,1-115-311-8128,Cras.pellentesque.Sed@sit.co.uk,"Rogan Mercer"
6,Adobe,"711-4504 Mauris, St.","North Las Vegas",Nevada,67009,1-105-490-8867,laoreet@imperdietornareIn.com,"Quail Brewer"
7,Microsoft,"Ap #471-3976 Commodo Avenue",Reno,Nevada,14814,1-134-472-6978,In.condimentum.Donec@pede.ca,"Heather Estrada"
10,Macromedia,"P.O. Box 701, 7355 Vitae, St.","Rock Springs",Wyoming,36842,1-721-927-0196,nisi.dictum@nunc.co.uk,"Rhiannon Evans"
12,Lavasoft,"P.O. Box 930, 1526 Ac, Road",Wichita,Kansas,44661,1-800-476-9103,arcu.vel.quam@ornareegestas.net,"Ross Contreras"
14,Borland,"6320 Dignissim. Rd.","West Jordan",Utah,76704,1-997-479-4986,libero.Proin@dictum.net,"Zephania Mclaughlin"
15,Lycos,"P.O. Box 510, 5881 Pharetra St.","Broken Arrow",Oklahoma,48539,1-200-915-0868,natoque.penatibus.et@Donectempus.com,"Stewart Collier"
51,Adobe,"6444 Torquent St.",Henderson,Nevada,20727,1-394-915-6082,venenatis.vel.faucibus@blanditat.org,"Hamish Wilson"
52,Borland,"P.O. Box 341, 7635 Ut Avenue",Minneapolis,Minnesota,94569,1-956-638-9064,diam.nunc@Nullasempertellus.org,"John Huff"
53,Borland,"P.O. Box 411, 6884 Arcu St.",Rockville,Maryland,92342,1-487-588-5498,tincidunt@dictumauguemalesuada.net,"Nelle Parsons"
54,Borland,"924 Lobortis St.",Aurora,Colorado,53589,1-766-920-7466,nunc@dictumcursusNunc.net,"Keefe Sellers"
55,Sibelius,"Ap #653-6482 Fusce Ave",Harrisburg,Pennsylvania,74182,1-957-637-1175,Maecenas.iaculis.aliquet@sed.net,"Finn Kirk"
56,Borland,"6227 Orci Ave",Annapolis,Maryland,75882,1-209-439-2338,massa.lobortis.ultrices@fringilla.net,"Sean Valentine"
57,Lavasoft,"Ap #984-4964 Risus Street",Frederick,Maryland,15361,1-477-235-9724,odio.Nam.interdum@dictumeleifendnunc.ca,"Fiona Hendricks"
58,Sibelius,"406-1124 Odio St.",Wichita,Kansas,34865,1-432-624-7108,rutrum@quamdignissimpharetra.edu,"Dorian Brown"
59,Google,"747-9040 Lacus St.",Tacoma,Washington,47664,1-550-429-7596,tempus.mauris@id.co.uk,"Kylan Pitts"
60,Google,"P.O. Box 863, 5912 Class St.",Bangor,Maine,12694,1-540-104-1860,vulputate.nisi.sem@enimEtiamgravida.edu,"Dylan Chang"
61,Finale,"P.O. Box 540, 4503 Pharetra Rd.",Fayetteville,Arkansas,72859,1-440-658-9386,risus@magnaDuisdignissim.co.uk,"Kevyn Vega"
62,Yahoo,"P.O. Box 910, 2752 Sodales Ave",Provo,Utah,12726,1-195-244-7392,Nullam.enim@massa.org,"Harlan Williamson"
63,Google,"2056 Non Street","Las Vegas",Nevada,19551,1-500-133-1277,dignissim.magna@pedeet.edu,"Elvis Ellis"
64,Altavista,"P.O. Box 617, 8653 Ante Road",Hilo,Hawaii,58869,1-535-123-7258,faucibus.orci.luctus@et.co.uk,"Eugenia Rojas"
65,Yahoo,"672-3493 Duis Street","West Jordan",Utah,90948,1-270-282-1531,scelerisque.neque.Nullam@non.ca,"Vaughan Bruce"
66,Sibelius,"P.O. Box 116, 621 Pede. Av.",Augusta,Georgia,65698,1-793-893-6402,consectetuer@natoque.com,"Quintessa Atkins"
67,"Apple Systems","Ap #614-8337 Elementum Ave",Augusta,Georgia,75938,1-251-956-8404,massa@lorem.ca,"Denton Moon"
68,Microsoft,"876-4677 Vulputate, Av.",Missoula,Montana,42336,1-592-536-6281,ac.sem.ut@condimentumegetvolutpat.ca,"Sloane Macdonald"
69,Lycos,"P.O. Box 449, 4009 Ullamcorper Road",Olympia,Washington,18160,1-851-127-6213,nulla.magna@felisDonec.com,"George Rocha"
70,Lycos,"1162 Tempor Ave",Lafayette,Louisiana,30799,1-201-773-1810,vehicula@enim.net,"Maisie Burke"
71,Google,"536-8560 Non, Avenue",Houston,Texas,82644,1-920-514-9738,cursus.Integer@cubiliaCuraePhasellus.org,"Zachary Garza"
72,Finale,"392-224 Ipsum Ave","Rock Springs",Wyoming,87774,1-737-290-1608,interdum.feugiat@aliquet.net,"Hector Nieves"
73,Lycos,"4372 Mauris, St.",Gillette,Wyoming,91235,1-242-250-5464,Sed.eget@mollis.co.uk,"Violet Gentry"
74,Sibelius,"355-261 Dictum. Rd.",Houston,Texas,14076,1-422-333-4521,amet.dapibus.id@purusmaurisa.org,"Willa Downs"
75,Cakewalk,"Ap #536-8726 Vulputate, St.",Savannah,Georgia,95837,1-155-689-1746,libero@Nunc.org,"Alfonso Cooley"
76,Lycos,"Ap #281-8062 Natoque Av.",Birmingham,Alabama,35086,1-272-357-9256,velit.eget.laoreet@magna.edu,"Theodore Fletcher"
77,Macromedia,"328 Suscipit St.","Green Bay",Wisconsin,40970,1-793-435-1667,Duis.risus.odio@Phasellusdolor.com,"Kuame Harmon"
78,Borland,"269-6172 Quisque St.",Stamford,Connecticut,73159,1-152-397-8646,lobortis.nisi.nibh@molestie.edu,"Austin Preston"
79,Yahoo,"897-2952 Odio Ave",Joliet,Illinois,29338,1-415-558-4682,iaculis@convalliserat.net,"Gary Powers"
80,Google,"499-2286 Ornare. St.","Fort Wayne",Indiana,23560,1-172-373-9241,at.libero.Morbi@lectusantedictum.edu,"Jonah Mosley"
81,Lycos,"Ap #981-9545 Dignissim St.",Georgia,Georgia,25507,1-680-929-9883,nunc.ac@nibh.co.uk,"Zelenia Nolan"
82,Lycos,"P.O. Box 828, 6630 Bibendum. Avenue","San Jose",California,94214,1-140-486-3105,Lorem@Quisqueac.org,"Diana Kirkland"
83,Google,"Ap #671-3541 Ornare, Avenue",Hattiesburg,Mississippi,32110,1-870-790-5593,eget.odio.Aliquam@egetmagna.co.uk,"Drake Clay"
84,Macromedia,"951-4470 Cras Avenue",Hillsboro,Oregon,57768,1-594-278-0945,sit.amet@NullaaliquetProin.ca,"Silas Guzman"
85,Altavista,"P.O. Box 995, 5884 Sagittis Ave",Milwaukee,Wisconsin,66732,1-489-171-3645,nulla.at@Curabiturutodio.net,"Tobias Hendricks"
86,Chami,"9529 Mauris. Road",Racine,Wisconsin,84820,1-669-107-2777,cubilia.Curae.Phasellus@elit.org,"Audrey Dean"
87,Lavasoft,"909-6866 Vivamus Road","Kansas City",Kansas,72325,1-454-357-1808,eros.Proin.ultrices@imperdiet.ca,"Olivia Cabrera"
88,Cakewalk,"Ap #407-4584 Ridiculus St.",Kearney,Nebraska,98331,1-397-263-1129,ac@gravidanon.edu,"Ethan Martin"
89,Lavasoft,"P.O. Box 451, 5221 Sapien, St.",Lincoln,Nebraska,33304,1-470-612-2572,eu.ligula.Aenean@auctor.net,"Jason Meyers"
90,Microsoft,"P.O. Box 694, 6041 Sed Ave",Wilmington,Delaware,84712,1-588-305-5252,tempor@magnis.org,"Nigel Potts"
91,Lycos,"Ap #171-7553 Suscipit Rd.",Montgomery,Alabama,36203,1-112-819-5771,a@tortor.org,"Owen Higgins"
92,Borland,"264-9677 Sem St.",Springdale,Arkansas,72679,1-489-355-8055,sagittis@nonegestas.net,"Gavin Moran"
93,Borland,"Ap #508-2777 Sapien. Av.",Salem,Oregon,15438,1-394-538-2258,facilisis.Suspendisse@vehiculaet.net,"Kelsie Davenport"
94,Microsoft,"100-4473 Donec Avenue",Lawton,Oklahoma,29255,1-324-624-2372,mattis@enimMaurisquis.net,"Nell Stafford"
95,Microsoft,"P.O. Box 432, 6250 Massa. Rd.",Sacramento,California,95361,1-735-698-2690,Proin@metusvitaevelit.co.uk,"Iola Griffith"
96,Lycos,"P.O. Box 543, 120 Augue, Street",Seattle,Washington,87097,1-717-293-6115,feugiat.Lorem@Nullamvelitdui.edu,"Madeson Kidd"
97,Adobe,"P.O. Box 966, 3547 Malesuada. Av.","South Bend",Indiana,62444,1-506-917-6018,massa@aliquet.edu,"Kennan Baxter"
98,"Apple Systems","Ap #977-1357 Nisi Avenue",Memphis,Tennessee,10539,1-586-730-7575,purus.Duis@egestasblanditNam.co.uk,"Lunea Williamson"
99,Altavista,"5995 Donec Rd.",Rutland,Vermont,76140,1-617-120-1023,convallis@sollicitudin.com,"Aidan Horton"
100,Macromedia,"2194 Odio Avenue",Dover,Delaware,87232,1-169-744-1018,mauris@accumsaninterdum.edu,"Tasha Payne"
16000625,"Mauris Elit Corporation","Ap #530-540 Erat, Road",Topeka,Kansas,NULL,NULL,enim@sedsapien.ca,"Urielle Wolfe"
16010221,"Velit Sed Malesuada LLC","P.O. Box 384, 4565 Eget Ave",Davenport,Iowa,NULL,NULL,mi@turpis.com,"Rana Hatfield"
16010517,"Aliquet Incorporated","P.O. Box 549, 1190 Varius Road",Bellevue,Washington,NULL,NULL,morbi.tristique@sapiencursusin.ca,"Mannix Tucker"
16051016,"Cum Sociis Inc.","261-3242 Nibh Rd.",Augusta,Georgia,NULL,NULL,nunc.ullamcorper.eu@Vestibulum.co.uk,"Zephr Porter"
16070303,"Iaculis Odio Nam Corp.","Ap #387-3552 Nisi Ave",Cambridge,Massachusetts,NULL,NULL,massa.Integer@justoProinnon.edu,"Chester Lawrence"
16071204,"Vulputate Mauris Sagittis Foundation","P.O. Box 553, 8217 Libero St.",Topeka,Kansas,NULL,NULL,diam@egestaslacinia.com,"Nadine Savage"
16091204,"Eu LLC","770-3860 Facilisis Street","Fort Wayne",Indiana,NULL,NULL,In.lorem@ProinmiAliquam.org,"Brynn Hobbs"
16100318,"Aliquam Ultrices Iaculis Company","4683 Orci Avenue",Portland,Oregon,NULL,NULL,aliquet.Phasellus@justofaucibuslectus.com,"Raphael William"
16101125,"Dictum Eleifend Industries","8683 Parturient Road","Saint Paul",Minnesota,NULL,NULL,facilisis.vitae.orci@lectus.org,"Leslie Freeman"
16130610,"Turpis Industries","5417 Suspendisse Rd.","Colorado Springs",Colorado,NULL,NULL,gravida@magnaseddui.ca,"Vladimir Dean"
16151228,"Metus PC","3521 Proin Road",Phoenix,Arizona,NULL,NULL,Mauris.blandit@interdumCurabiturdictum.org,"Astra Riggs"
16160622,"Purus Duis Elementum LLC","Ap #539-2094 Odio. Road","South Portland",Maine,NULL,NULL,neque.Nullam@luctus.ca,"Alyssa Gilmore"
16161103,"Nibh Aliquam Institute","163-5277 Dictum Rd.",Fayetteville,Arkansas,NULL,NULL,varius@In.org,"Vanna Higgins"
16180515,"Donec Luctus Aliquet Industries","9848 Magna Street",Flint,Michigan,NULL,NULL,in.consequat@Maecenasmalesuada.net,"Brooke Bradley"
16180819,"Lectus Ante Dictum Corp.","1426 Ac Ave",Essex,Vermont,NULL,NULL,dictum.eleifend.nunc@Sedmolestie.com,"Imani Cline"
16190620,"Non Cursus Foundation","8425 Mattis. Rd.",Lawton,Oklahoma,NULL,NULL,ipsum.sodales.purus@Sed.ca,"Tasha Nash"
16210627,"Sodales LLP","5651 Arcu. Ave",Springfield,Missouri,NULL,NULL,senectus.et@pellentesque.net,"Marvin Herman"
16220112,"Vitae Erat Vel Ltd","Ap #304-2320 Sed Ave","San Diego",California,NULL,NULL,eu.accumsan@auctorvelitAliquam.edu,"Reuben Golden"
16220325,"Nibh Dolor LLP","Ap #694-9169 Sit Road",Tampa,Florida,NULL,NULL,at.pretium.aliquet@imperdietullamcorperDuis.e,"Mariam Alston"
16240428,"Neque Sed Eget Ltd","Ap #485-8003 Sapien St.",Covington,Kentucky,NULL,NULL,Integer@eu.com,"Justin Simmons"
16270226,"Metus Facilisis Consulting","Ap #239-292 Enim Av.",Sacramento,California,NULL,NULL,Integer.vulputate.risus@Maurisquisturpis.com,"Lani Knox"
16271106,"Eu Tellus Inc.","913-7926 At Street",Essex,Vermont,NULL,NULL,Nullam.scelerisque@nullaatsem.co.uk,"Harper Dickson"
16291021,"Quis Lectus Inc.","1625 Integer St.",Frederick,Maryland,NULL,NULL,Aenean@adipiscing.edu,"Abbot Petersen"
16340319,"Metus Sit LLP","4900 Id, Street",Springfield,Massachusetts,NULL,NULL,Suspendisse.aliquet.molestie@parturient.co.uk,"Wesley Goodwin"
16350525,"Dui Suspendisse Ac Limited","537-8348 Fusce Road",Wyoming,Wyoming,NULL,NULL,egestas.lacinia@augue.net,"Adena Sharp"
16350823,"Nullam Ut Nisi Institute","6375 Eget Rd.",Memphis,Tennessee,NULL,NULL,ultricies.ligula@Curabiturvel.co.uk,"Zoe Mills"
16350927,"Consequat Purus Maecenas Limited","P.O. Box 120, 1169 Feugiat. Rd.",Fayetteville,Arkansas,NULL,NULL,Vivamus.molestie.dapibus@tortorat.net,"Piper Stewart"
16360323,"Non Associates","Ap #782-2932 Etiam Ave",Bellevue,Washington,NULL,NULL,faucibus.orci.luctus@dictumcursus.com,"Cadman Kelly"
16360722,"Pellentesque Institute","Ap #491-2350 Dui Rd.",Honolulu,Hawaii,NULL,NULL,turpis@sodales.net,"Magee Hewitt"
16370606,"Sem Institute","5353 Et Rd.",Springfield,Massachusetts,NULL,NULL,Sed@feugiatmetus.org,"Bethany Peters"
16370923,"Consequat Purus PC","749 Nulla Road",Lansing,Michigan,NULL,NULL,lacinia.orci.consectetuer@utodiovel.net,"Aquila Cote"
16380911,"Tincidunt Incorporated","P.O. Box 845, 3450 Augue Av.",Indianapolis,Indiana,NULL,NULL,tempus@a.org,"Fiona Crane"
16410319,"Gravida Praesent Corporation","844-4656 Consequat, Road",Dover,Delaware,NULL,NULL,nibh@sed.co.uk,"Abra Willis"
16410404,"Lacus Associates","9104 Nisi. Rd.",Flint,Michigan,NULL,NULL,vel.vulputate@sapien.com,"Ingrid Little"
16451114,"Nullam Ut Institute","P.O. Box 867, 3148 Vitae, Road",Boston,Massachusetts,NULL,NULL,ac.facilisis@Fuscealiquamenim.ca,"Keely Brock"
16451212,"Blandit Nam Nulla Corp.","157-6259 Quis Rd.",Springfield,Massachusetts,NULL,NULL,Donec.non.justo@loremloremluctus.edu,"Holmes Whitaker"
16481103,"Sociis LLP","Ap #979-5417 Convallis Av.",Columbia,Maryland,NULL,NULL,augue@varius.edu,"Merritt Roman"
16491003,"Donec Associates","P.O. Box 334, 1469 Enim St.",Tuscaloosa,Alabama,NULL,NULL,tristique.pellentesque.tellus@egestasDuis.org,"Benedict Vance"
16491005,"Id Mollis Nec LLC","Ap #395-7086 Vitae, Road",Baltimore,Maryland,NULL,NULL,Duis.elementum@Namporttitorscelerisque.co.uk,"Rudyard Cox"
16501118,"Orci Luctus PC","6468 Sollicitudin Av.","Pike Creek",Delaware,NULL,NULL,Phasellus@est.ca,"Reuben Bright"
16540410,"Aliquet Sem Ut Company","512-8436 Interdum. Street","Las Vegas",Nevada,NULL,NULL,sit.amet.lorem@nuncidenim.net,"Dylan Pittman"
16540418,"Tortor Incorporated","P.O. Box 728, 6617 Dis Rd.",Kenosha,Wisconsin,NULL,NULL,lacus.vestibulum.lorem@cursus.net,"Honorato Kinney"
16541203,"Adipiscing Lobortis Consulting","Ap #403-1145 Neque. Road","Grand Rapids",Michigan,NULL,NULL,ornare.lectus@aliquet.net,"Heidi Hickman"
16570321,"Ante Vivamus LLC","621-3692 Dolor St.","San Francisco",California,NULL,NULL,cursus.non@tinciduntpede.org,"Judith Petersen"
16570528,"Malesuada Fringilla Ltd","9744 Odio. St.","South Burlington",Vermont,NULL,NULL,commodo.hendrerit@ametconsectetueradipiscing.,"Rajah Quinn"
16590514,"Vestibulum Corp.","Ap #886-211 Id, Avenue",Laramie,Wyoming,NULL,NULL,mus.Proin.vel@congueturpisIn.net,"Darryl Mooney"
16600904,"Sit Amet Orci Incorporated","874-9762 Lorem, St.",Bangor,Maine,NULL,NULL,Nullam.suscipit@malesuadavel.ca,"Cathleen Ferrell"
16620406,"At Nisi Associates","P.O. Box 218, 3909 In, Avenue",Columbia,Missouri,NULL,NULL,eget.nisi.dictum@semconsequatnec.edu,"Dolan Cantu"
16670102,"Et Ultrices Posuere Incorporated","Ap #683-4027 Amet Avenue",Denver,Colorado,NULL,NULL,ut@actellusSuspendisse.edu,"Myra Cotton"
16680918,"Arcu Et Institute","Ap #853-9593 Iaculis Street",Springfield,Massachusetts,NULL,NULL,ac.turpis.egestas@Pellentesqueutipsum.net,"Trevor Shepard"
16681129,"Sociis Natoque Inc.","Ap #235-407 Et St.",Worcester,Massachusetts,NULL,NULL,Nulla.aliquet@penatibusetmagnis.net,"Finn Shepherd"
16690216,"Eu Tempor Erat LLP","153-3331 Placerat, Ave",Columbus,Georgia,NULL,NULL,nibh.enim.gravida@volutpatNulladignissim.edu,"Calvin Kane"
16710417,"Fringilla LLP","113-120 Pretium St.",Honolulu,Hawaii,NULL,NULL,Duis.volutpat.nunc@Fusce.net,"Leonard Humphrey"
16751120,"Lectus Rutrum Urna LLP","6636 Ante. Rd.","Fort Smith",Arkansas,NULL,NULL,pellentesque@ornaresagittisfelis.org,"Chancellor Bishop"
16760129,"Consectetuer Adipiscing Elit PC","P.O. Box 293, 4755 Risus Av.",Nashville,Tennessee,NULL,NULL,Sed.pharetra@Nullamnisl.org,"Desiree Frederick"
16760605,"Duis Dignissim LLP","3079 In Road","South Bend",Indiana,NULL,NULL,fames@Proinsed.com,"Rafael Tran"
16770416,"Nisi Cum Institute","979-9484 Dui Rd.",Tampa,Florida,NULL,NULL,Integer.id@gravidaPraesent.com,"Galvin Morrison"
16771210,"Suspendisse Eleifend Cras Company","Ap #467-4369 Amet St.",Springdale,Arkansas,NULL,NULL,orci.tincidunt.adipiscing@elementum.com,"Florence Maxwell"
16790114,"Donec Non Justo LLC","485-4651 Dapibus Street","Grand Island",Nebraska,NULL,NULL,nonummy.ac@sodalesatvelit.net,"Yeo Thompson"
16820324,"Volutpat Nulla Company","P.O. Box 515, 2395 Nec Rd.",Philadelphia,Pennsylvania,NULL,NULL,eu.dui.Cum@Integeridmagna.edu,"Aristotle Mason"
16860221,"Fusce Feugiat Lorem Corp.","5642 Sed St.",Dallas,Texas,NULL,NULL,interdum@ad.edu,"Cassandra Pratt"
16860604,"Dolor Egestas Industries","9312 Enim. St.","West Jordan",Utah,NULL,NULL,lectus.justo.eu@sapien.org,"Leroy Osborne"
16870228,"Ligula Inc.","Ap #690-7982 Aliquet, Road",Essex,Vermont,NULL,NULL,mauris.Integer@accumsan.edu,"Theodore Johnston"
16870726,"Ullamcorper Magna Limited","Ap #349-3355 Nunc. Street",Olympia,Washington,NULL,NULL,odio.Phasellus.at@ultricesaauctor.org,"Dawn Guerrero"
16911121,"Et Libero Proin Incorporated","606-3081 Ut Av.",Bellevue,Nebraska,NULL,NULL,netus.et@quamCurabitur.org,"Carson Rollins"
16921105,"Pede LLP","3351 Mauris Avenue",Dallas,Texas,NULL,NULL,sem.Pellentesque@ipsum.edu,"Lyle Charles"
16930529,"Dui Consulting","5049 Libero Av.",Fairbanks,Alaska,NULL,NULL,augue@ipsumdolorsit.org,"Michelle Stephenson"
16930927,"Molestie Tortor Nibh Industries","374-5491 Tristique St.",Reno,Nevada,NULL,NULL,pede.blandit@euismodenimEtiam.org,"Shellie Knowles"
16950718,"Consequat Auctor Nunc LLP","Ap #416-1981 Urna. Rd.",Austin,Texas,NULL,NULL,Morbi.vehicula.Pellentesque@vel.edu,"Wynne Santana"
16981130,"Eu Consulting","4801 Pharetra Rd.","Sterling Heights",Michigan,NULL,NULL,arcu.imperdiet@adlitoratorquent.com,"Tashya Brock"
